[{"OBJECT_NAME":"STARLINK-35134","OBJECT_ID":"2025-210V","EPOCH":"2026-03-09T22:42:40.203360","MEAN_MOTION":15.30200926,"ECCENTRICITY":0.00010222,"INCLINATION":53.1575,"RA_OF_ASC_NODE":305.6542,"ARG_OF_PERICENTER":64.9738,"MEAN_ANOMALY":295.1369,"EPHEMERIS_TYPE":0,"CLASSIFICATION_TYPE":"U","NORAD_CAT_ID":65641,"ELEMENT_SET_NO":999,"REV_AT_EPOCH":2777,"BSTAR":0.0012385355,"MEAN_MOTION_DOT":0.00036504,"MEAN_MOTION_DDOT":0},{"OBJECT_NAME":"CZ-2D DEB","OBJECT_ID":"2010-027G","EPOCH":"2026-03-07T07:54:25.300800","MEAN_MOTION":15.18267572,"ECCENTRICITY":0.0071051,"INCLINATION":97.484,"RA_OF_ASC_NODE":105.3106,"ARG_OF_PERICENTER":258.5099,"MEAN_ANOMALY":100.8151,"EPHEMERIS_TYPE":0,"CLASSIFICATION_TYPE":"U","NORAD_CAT_ID":38302,"ELEMENT_SET_NO":999,"REV_AT_EPOCH":83107,"BSTAR":0.0021438,"MEAN_MOTION_DOT":0.00047105,"MEAN_MOTION_DDOT":0}]
